{
  "type": "FeatureCollection",
  "features": [
    {
      "type": "Feature",
      "properties": {
        "norad_id": 31026,
        "name": "FENGYUN 1C DEB",
        "group": "fengyun-1c-debris",
        "lat": -71.87163122806041,
        "lon": -44.63411971062614,
        "alt_km": 1003.805873547285,
        "timestamp": "2025-12-17T23:38:07.134204+00:00",
        "meta_object_name": "FENGYUN 1C DEB",
        "meta_object_id": "1999-025BDU",
        "meta_epoch": "2025-12-16T14:07:08.116896",
        "meta_mean_motion": 13.83400412,
        "meta_eccentricity": 0.01344959,
        "meta_inclination": 98.7801,
        "meta_ra_of_asc_node": 285.8947,
        "meta_arg_of_pericenter": 172.0946,
        "meta_mean_anomaly": 1.2766,
        "meta_ephemeris_type": 0,
        "meta_classification_type": "U",
        "meta_norad_cat_id": 31026,
        "meta_element_set_no": 999,
        "meta_rev_at_epoch": 68079,
        "meta_bstar": 0.00014906948,
        "meta_mean_motion_dot": 1.36e-06,
        "meta_mean_motion_ddot": 0,
        "tle_line1": "1 31026U 99025BDU 25350.58828839  .00000136  00000+0  14907-3 0  9996",
        "tle_line2": "2 31026  98.7801 285.8947 0134495 172.0946   1.2766 13.83400412680793"
      },
      "geometry": {
        "type": "Point",
        "coordinates": [
          -44.63411971062614,
          -71.87163122806041
        ]
      }
    },
    {
      "type": "Feature",
      "properties": {
        "norad_id": 31028,
        "name": "FENGYUN 1C DEB",
        "group": "fengyun-1c-debris",
        "lat": 40.955935387391264,
        "lon": -84.1459540658825,
        "alt_km": 990.1701964584881,
        "timestamp": "2025-12-17T23:38:07.134215+00:00",
        "meta_object_name": "FENGYUN 1C DEB",
        "meta_object_id": "1999-025BDW",
        "meta_epoch": "2025-12-16T00:45:35.214048",
        "meta_mean_motion": 13.89074855,
        "meta_eccentricity": 0.01643907,
        "meta_inclination": 98.7052,
        "meta_ra_of_asc_node": 281.6698,
        "meta_arg_of_pericenter": 285.3135,
        "meta_mean_anomaly": 72.9908,
        "meta_ephemeris_type": 0,
        "meta_classification_type": "U",
        "meta_norad_cat_id": 31028,
        "meta_element_set_no": 999,
        "meta_rev_at_epoch": 62049,
        "meta_bstar": 0.0002880402,
        "meta_mean_motion_dot": 3.48e-06,
        "meta_mean_motion_ddot": 0,
        "tle_line1": "1 31028U 99025BDW 25350.03165757  .00000348  00000+0  28804-3 0  9997",
        "tle_line2": "2 31028  98.7052 281.6698 0164390 285.3135  72.9908 13.89074855620493"
      },
      "geometry": {
        "type": "Point",
        "coordinates": [
          -84.1459540658825,
          40.955935387391264
        ]
      }
    },
    {
      "type": "Feature",
      "properties": {
        "norad_id": 31029,
        "name": "FENGYUN 1C DEB",
        "group": "fengyun-1c-debris",
        "lat": 79.93144212719763,
        "lon": 130.4558750846462,
        "alt_km": 717.6306575547242,
        "timestamp": "2025-12-17T23:38:07.134226+00:00",
        "meta_object_name": "FENGYUN 1C DEB",
        "meta_object_id": "1999-025BDX",
        "meta_epoch": "2025-12-17T05:29:19.017312",
        "meta_mean_motion": 14.34331122,
        "meta_eccentricity": 0.00901056,
        "meta_inclination": 98.8586,
        "meta_ra_of_asc_node": 248.2402,
        "meta_arg_of_pericenter": 60.8044,
        "meta_mean_anomaly": 91.3366,
        "meta_ephemeris_type": 0,
        "meta_classification_type": "U",
        "meta_norad_cat_id": 31029,
        "meta_element_set_no": 999,
        "meta_rev_at_epoch": 97860,
        "meta_bstar": 0.00027781535,
        "meta_mean_motion_dot": 7.71e-06,
        "meta_mean_motion_ddot": 0,
        "tle_line1": "1 31029U 99025BDX 25351.22869233  .00000771  00000+0  27782-3 0  9994",
        "tle_line2": "2 31029  98.8586 248.2402 0090105  60.8044  91.3366 14.34331122978602"
      },
      "geometry": {
        "type": "Point",
        "coordinates": [
          130.4558750846462,
          79.93144212719763
        ]
      }
    },
    {
      "type": "Feature",
      "properties": {
        "norad_id": 31030,
        "name": "FENGYUN 1C DEB",
        "group": "fengyun-1c-debris",
        "lat": 72.49518685937669,
        "lon": 24.59481385935586,
        "alt_km": 786.2427975582586,
        "timestamp": "2025-12-17T23:38:07.134236+00:00",
        "meta_object_name": "FENGYUN 1C DEB",
        "meta_object_id": "1999-025BDY",
        "meta_epoch": "2025-12-17T15:34:09.355296",
        "meta_mean_motion": 14.23692174,
        "meta_eccentricity": 0.00274519,
        "meta_inclination": 98.7673,
        "meta_ra_of_asc_node": 53.5548,
        "meta_arg_of_pericenter": 70.1432,
        "meta_mean_anomaly": 83.082,
        "meta_ephemeris_type": 0,
        "meta_classification_type": "U",
        "meta_norad_cat_id": 31030,
        "meta_element_set_no": 999,
        "meta_rev_at_epoch": 96774,
        "meta_bstar": 0.00069253361,
        "meta_mean_motion_dot": 1.543e-05,
        "meta_mean_motion_ddot": 0,
        "tle_line1": "1 31030U 99025BDY 25351.64871939  .00001543  00000+0  69253-3 0  9995",
        "tle_line2": "2 31030  98.7673  53.5548 0027451  70.1432  83.0820 14.23692174967748"
      },
      "geometry": {
        "type": "Point",
        "coordinates": [
          24.59481385935586,
          72.49518685937669
        ]
      }
    },
    {
      "type": "Feature",
      "properties": {
        "norad_id": 31031,
        "name": "FENGYUN 1C DEB",
        "group": "fengyun-1c-debris",
        "lat": 26.161267883575192,
        "lon": -95.27441075232356,
        "alt_km": 837.3779216749836,
        "timestamp": "2025-12-17T23:38:07.134247+00:00",
        "meta_object_name": "FENGYUN 1C DEB",
        "meta_object_id": "1999-025BDZ",
        "meta_epoch": "2025-12-15T06:19:29.672832",
        "meta_mean_motion": 14.20989204,
        "meta_eccentricity": 0.00278558,
        "meta_inclination": 99.0717,
        "meta_ra_of_asc_node": 266.4341,
        "meta_arg_of_pericenter": 179.1838,
        "meta_mean_anomaly": 334.5534,
        "meta_ephemeris_type": 0,
        "meta_classification_type": "U",
        "meta_norad_cat_id": 31031,
        "meta_element_set_no": 999,
        "meta_rev_at_epoch": 96890,
        "meta_bstar": 0.00042975182,
        "meta_mean_motion_dot": 8.88e-06,
        "meta_mean_motion_ddot": 0,
        "tle_line1": "1 31031U 99025BDZ 25349.26353788  .00000888  00000+0  42975-3 0  9991",
        "tle_line2": "2 31031  99.0717 266.4341 0027855 179.1838 334.5534 14.20989204968901"
      },
      "geometry": {
        "type": "Point",
        "coordinates": [
          -95.27441075232356,
          26.161267883575192
        ]
      }
    },
    {
      "type": "Feature",
      "properties": {
        "norad_id": 31032,
        "name": "FENGYUN 1C DEB",
        "group": "fengyun-1c-debris",
        "lat": 50.06842298596052,
        "lon": -10.438930222397547,
        "alt_km": 946.4936919692564,
        "timestamp": "2025-12-17T23:38:07.134257+00:00",
        "meta_object_name": "FENGYUN 1C DEB",
        "meta_object_id": "1999-025BEA",
        "meta_epoch": "2025-12-15T19:09:17.600832",
        "meta_mean_motion": 14.02211133,
        "meta_eccentricity": 0.01391796,
        "meta_inclination": 99.3993,
        "meta_ra_of_asc_node": 358.7198,
        "meta_arg_of_pericenter": 187.6892,
        "meta_mean_anomaly": 352.2704,
        "meta_ephemeris_type": 0,
        "meta_classification_type": "U",
        "meta_norad_cat_id": 31032,
        "meta_element_set_no": 999,
        "meta_rev_at_epoch": 95024,
        "meta_bstar": 0.0010599997,
        "meta_mean_motion_dot": 1.72e-05,
        "meta_mean_motion_ddot": 0,
        "tle_line1": "1 31032U 99025BEA 25349.79812038  .00001720  00000+0  10600-2 0  9993",
        "tle_line2": "2 31032  99.3993 358.7198 0139179 187.6892 352.2704 14.02211133950246"
      },
      "geometry": {
        "type": "Point",
        "coordinates": [
          -10.438930222397547,
          50.06842298596052
        ]
      }
    },
    {
      "type": "Feature",
      "properties": {
        "norad_id": 31033,
        "name": "FENGYUN 1C DEB",
        "group": "fengyun-1c-debris",
        "lat": -42.381952559416234,
        "lon": 142.34569668534382,
        "alt_km": 873.5205876565251,
        "timestamp": "2025-12-17T23:38:07.134268+00:00",
        "meta_object_name": "FENGYUN 1C DEB",
        "meta_object_id": "1999-025BEB",
        "meta_epoch": "2025-12-16T10:17:35.091168",
        "meta_mean_motion": 14.27456248,
        "meta_eccentricity": 0.01541871,
        "meta_inclination": 98.4386,
        "meta_ra_of_asc_node": 328.6287,
        "meta_arg_of_pericenter": 99.6905,
        "meta_mean_anomaly": 50.6773,
        "meta_ephemeris_type": 0,
        "meta_classification_type": "U",
        "meta_norad_cat_id": 31033,
        "meta_element_set_no": 999,
        "meta_rev_at_epoch": 97398,
        "meta_bstar": 0.00018483415,
        "meta_mean_motion_dot": 4.72e-06,
        "meta_mean_motion_ddot": 0,
        "tle_line1": "1 31033U 99025BEB 25350.42887837  .00000472  00000+0  18483-3 0  9996",
        "tle_line2": "2 31033  98.4386 328.6287 0154187  99.6905  50.6773 14.27456248973987"
      },
      "geometry": {
        "type": "Point",
        "coordinates": [
          142.34569668534382,
          -42.381952559416234
        ]
      }
    }
  ]
}